{"type": "FeatureCollection", "features": [ {"type": "Feature", "properties": {"norad_id": 66798, "name": "STARLINK-36041", "group": "last-30-days", "lat": 35.61431586781383, "lon": -102.74643348699483, "alt_km": 371.6937562289868, "timestamp": "2025-12-20T03:42:46.120638+00:00", "meta": {"OBJECT_NAME": "STARLINK-36041", "OBJECT_ID": "2025-278H", "EPOCH": "2025-12-19T20:00:01.999008", "MEAN_MOTION": 15.65347446, "ECCENTRICITY": 0.000167, "INCLINATION": 42.9988, "RA_OF_ASC_NODE": 208.9333, "ARG_OF_PERICENTER": 270.8115, "MEAN_ANOMALY": 135.6635, "EPHEMERIS_TYPE": 0, "CLASSIFICATION_TYPE": "U", "NORAD_CAT_ID": 66798, "ELEMENT_SET_NO": 999, "REV_AT_EPOCH": 393, "BSTAR": -0.022052, "MEAN_MOTION_DOT": -0.01988918, "MEAN_MOTION_DDOT": 0}, "tle": {"line1": "1 66798U 25278H   25353.83335647 -.01988918  00000+0 -22052-1 0  9994", "line2": "2 66798  42.9988 208.9333 0001670 270.8115 135.6635 15.65347446  3933"}}, "geometry": {"type": "Point", "coordinates": [-102.74643348699483, 35.61431586781383]}}, {"type": "Feature", "properties": {"norad_id": 66799, "name": "STARLINK-36044", "group": "last-30-days", "lat": 36.43245851610641, "lon": -100.60317270742598, "alt_km": 371.63160631426126, "timestamp": "2025-12-20T03:42:46.120649+00:00", "meta": {"OBJECT_NAME": "STARLINK-36044", "OBJECT_ID": "2025-278J", "EPOCH": "2025-12-19T20:00:01.999008", "MEAN_MOTION": 15.65353746, "ECCENTRICITY": 0.0001654, "INCLINATION": 42.9989, "RA_OF_ASC_NODE": 208.9291, "ARG_OF_PERICENTER": 267.0054, "MEAN_ANOMALY": 141.3864, "EPHEMERIS_TYPE": 0, "CLASSIFICATION_TYPE": "U", "NORAD_CAT_ID": 66799, "ELEMENT_SET_NO": 999, "REV_AT_EPOCH": 409, "BSTAR": -0.02217, "MEAN_MOTION_DOT": -0.01998766, "MEAN_MOTION_DDOT": 0}, "tle": {"line1": "1 66799U 25278J   25353.83335647 -.01998766  00000+0 -22170-1 0  9998", "line2": "2 66799  42.9989 208.9291 0001654 267.0054 141.3864 15.65353746  4096"}}, "geometry": {"type": "Point", "coordinates": [-100.60317270742598, 36.43245851610641]}}, {"type": "Feature", "properties": {"norad_id": 66800, "name": "STARLINK-35996", "group": "last-30-days", "lat": 37.9468121811927, "lon": -96.19008209652615, "alt_km": 371.4086898030573, "timestamp": "2025-12-20T03:42:46.120659+00:00", "meta": {"OBJECT_NAME": "STARLINK-35996", "OBJECT_ID": "2025-278K", "EPOCH": "2025-12-19T20:00:01.999008", "MEAN_MOTION": 15.65344889, "ECCENTRICITY": 0.0001661, "INCLINATION": 42.9987, "RA_OF_ASC_NODE": 208.9192, "ARG_OF_PERICENTER": 268.3041, "MEAN_ANOMALY": 143.9211, "EPHEMERIS_TYPE": 0, "CLASSIFICATION_TYPE": "U", "NORAD_CAT_ID": 66800, "ELEMENT_SET_NO": 999, "REV_AT_EPOCH": 388, "BSTAR": -0.021977, "MEAN_MOTION_DOT": -0.01982827, "MEAN_MOTION_DDOT": 0}, "tle": {"line1": "1 66800U 25278K   25353.83335647 -.01982827  00000+0 -21977-1 0  9996", "line2": "2 66800  42.9987 208.9192 0001661 268.3041 143.9211 15.65344889  3883"}}, "geometry": {"type": "Point", "coordinates": [-96.19008209652615, 37.9468121811927]}}, {"type": "Feature", "properties": {"norad_id": 66801, "name": "STARLINK-36080", "group": "last-30-days", "lat": 40.94854267913619, "lon": -84.40013881217433, "alt_km": 370.98486762352604, "timestamp": "2025-12-20T03:42:46.120669+00:00", "meta": {"OBJECT_NAME": "STARLINK-36080", "OBJECT_ID": "2025-278L", "EPOCH": "2025-12-19T20:00:01.999008", "MEAN_MOTION": 15.6535144, "ECCENTRICITY": 0.000162, "INCLINATION": 42.9986, "RA_OF_ASC_NODE": 208.8933, "ARG_OF_PERICENTER": 270.9706, "MEAN_ANOMALY": 150.8394, "EPHEMERIS_TYPE": 0, "CLASSIFICATION_TYPE": "U", "NORAD_CAT_ID": 66801, "ELEMENT_SET_NO": 999, "REV_AT_EPOCH": 409, "BSTAR": -0.022148, "MEAN_MOTION_DOT": -0.0199677, "MEAN_MOTION_DDOT": 0}, "tle": {"line1": "1 66801U 25278L   25353.83335647 -.01996770  00000+0 -22148-1 0  9990", "line2": "2 66801  42.9986 208.8933 0001620 270.9706 150.8394 15.65351440  4091"}}, "geometry": {"type": "Point", "coordinates": [-84.40013881217433, 40.94854267913619]}}, {"type": "Feature", "properties": {"norad_id": 66802, "name": "STARLINK-35604", "group": "last-30-days", "lat": 37.21089296474801, "lon": -98.41638311497276, "alt_km": 371.38977473863906, "timestamp": "2025-12-20T03:42:46.120679+00:00", "meta": {"OBJECT_NAME": "STARLINK-35604", "OBJECT_ID": "2025-278M", "EPOCH": "2025-12-19T20:00:01.999008", "MEAN_MOTION": 15.65347839, "ECCENTRICITY": 0.000163, "INCLINATION": 42.9985, "RA_OF_ASC_NODE": 208.9237, "ARG_OF_PERICENTER": 276.3051, "MEAN_ANOMALY": 134.0044, "EPHEMERIS_TYPE": 0, "CLASSIFICATION_TYPE": "U", "NORAD_CAT_ID": 66802, "ELEMENT_SET_NO": 999, "REV_AT_EPOCH": 409, "BSTAR": -0.022073, "MEAN_MOTION_DOT": -0.01990604, "MEAN_MOTION_DDOT": 0}, "tle": {"line1": "1 66802U 25278M   25353.83335647 -.01990604  00000+0 -22073-1 0  9998", "line2": "2 66802  42.9985 208.9237 0001630 276.3051 134.0044 15.65347839  4096"}}, "geometry": {"type": "Point", "coordinates": [-98.41638311497276, 37.21089296474801]}}, {"type": "Feature", "properties": {"norad_id": 66803, "name": "STARLINK-35565", "group": "last-30-days", "lat": 38.64174501290684, "lon": -93.91261296377931, "alt_km": 371.22318388425265, "timestamp": "2025-12-20T03:42:46.120693+00:00", "meta": {"OBJECT_NAME": "STARLINK-35565", "OBJECT_ID": "2025-278N", "EPOCH": "2025-12-19T20:00:01.999008", "MEAN_MOTION": 15.65348098, "ECCENTRICITY": 0.0001589, "INCLINATION": 42.9984, "RA_OF_ASC_NODE": 208.9137, "ARG_OF_PERICENTER": 273.4542, "MEAN_ANOMALY": 140.6889, "EPHEMERIS_TYPE": 0, "CLASSIFICATION_TYPE": "U", "NORAD_CAT_ID": 66803, "ELEMENT_SET_NO": 999, "REV_AT_EPOCH": 418, "BSTAR": -0.022065, "MEAN_MOTION_DOT": -0.01989954, "MEAN_MOTION_DDOT": 0}, "tle": {"line1": "1 66803U 25278N   25353.83335647 -.01989954  00000+0 -22065-1 0  9996", "line2": "2 66803  42.9984 208.9137 0001589 273.4542 140.6889 15.65348098  4189"}}, "geometry": {"type": "Point", "coordinates": [-93.91261296377931, 38.64174501290684]}}, {"type": "Feature", "properties": {"norad_id": 66804, "name": "STARLINK-36038", "group": "last-30-days", "lat": 39.2901873970001, "lon": -91.59754587446594, "alt_km": 371.25478621178445, "timestamp": "2025-12-20T03:42:46.120703+00:00", "meta": {"OBJECT_NAME": "STARLINK-36038", "OBJECT_ID": "2025-278P", "EPOCH": "2025-12-19T20:00:01.999008", "MEAN_MOTION": 15.65349352, "ECCENTRICITY": 0.0001666, "INCLINATION": 42.9987, "RA_OF_ASC_NODE": 208.9095, "ARG_OF_PERICENTER": 266.6761, "MEAN_ANOMALY": 149.3822, "EPHEMERIS_TYPE": 0, "CLASSIFICATION_TYPE": "U", "NORAD_CAT_ID": 66804, "ELEMENT_SET_NO": 999, "REV_AT_EPOCH": 409, "BSTAR": -0.022063, "MEAN_MOTION_DOT": -0.01989969, "MEAN_MOTION_DDOT": 0}, "tle": {"line1": "1 66804U 25278P   25353.83335647 -.01989969  00000+0 -22063-1 0  9991", "line2": "2 66804  42.9987 208.9095 0001666 266.6761 149.3822 15.65349352  4096"}}, "geometry": {"type": "Point", "coordinates": [-91.59754587446594, 39.2901873970001]}}, {"type": "Feature", "properties": {"norad_id": 66805, "name": "STARLINK-36049", "group": "last-30-days", "lat": 40.44656530324484, "lon": -86.83480696821117, "alt_km": 371.04406803318034, "timestamp": "2025-12-20T03:42:46.120720+00:00", "meta": {"OBJECT_NAME": "STARLINK-36049", "OBJECT_ID": "2025-278Q", "EPOCH": "2025-12-19T20:00:01.999008", "MEAN_MOTION": 15.6534971, "ECCENTRICITY": 0.0001627, "INCLINATION": 42.9987, "RA_OF_ASC_NODE": 208.8988, "ARG_OF_PERICENTER": 272.2497, "MEAN_ANOMALY": 147.6465, "EPHEMERIS_TYPE": 0, "CLASSIFICATION_TYPE": "U", "NORAD_CAT_ID": 66805, "ELEMENT_SET_NO": 999, "REV_AT_EPOCH": 409, "BSTAR": -0.022141, "MEAN_MOTION_DOT": -0.01996132, "MEAN_MOTION_DDOT": 0}, "tle": {"line1": "1 66805U 25278Q   25353.83335647 -.01996132  00000+0 -22141-1 0  9999", "line2": "2 66805  42.9987 208.8988 0001627 272.2497 147.6465 15.65349710  4095"}}, "geometry": {"type": "Point", "coordinates": [-86.83480696821117, 40.44656530324484]}}, {"type": "Feature", "properties": {"norad_id": 66806, "name": "STARLINK-36069", "group": "last-30-days", "lat": 39.893098444991686, "lon": -89.2346785125703, "alt_km": 371.0809592754367, "timestamp": "2025-12-20T03:42:46.120731+00:00", "meta": {"OBJECT_NAME": "STARLINK-36069", "OBJECT_ID": "2025-278R", "EPOCH": "2025-12-19T20:00:01.999008", "MEAN_MOTION": 15.65346009, "ECCENTRICITY": 0.0001606, "INCLINATION": 42.9985, "RA_OF_ASC_NODE": 208.9039, "ARG_OF_PERICENTER": 273.6755, "MEAN_ANOMALY": 144.3044, "EPHEMERIS_TYPE": 0, "CLASSIFICATION_TYPE": "U", "NORAD_CAT_ID": 66806, "ELEMENT_SET_NO": 999, "REV_AT_EPOCH": 388, "BSTAR": -0.022067, "MEAN_MOTION_DOT": -0.01990001, "MEAN_MOTION_DDOT": 0}, "tle": {"line1": "1 66806U 25278R   25353.83335647 -.01990001  00000+0 -22067-1 0  9996", "line2": "2 66806  42.9985 208.9039 0001606 273.6755 144.3044 15.65346009  3882"}}, "geometry": {"type": "Point", "coordinates": [-89.2346785125703, 39.893098444991686]}}, {"type": "Feature", "properties": {"norad_id": 66807, "name": "STARLINK-36000", "group": "last-30-days", "lat": 41.39880110264284, "lon": -81.92711391600767, "alt_km": 370.93365165331124, "timestamp": "2025-12-20T03:42:46.120741+00:00", "meta": {"OBJECT_NAME": "STARLINK-36000", "OBJECT_ID": "2025-278S", "EPOCH": "2025-12-19T20:00:01.999008", "MEAN_MOTION": 15.65343803, "ECCENTRICITY": 0.0001634, "INCLINATION": 42.9989, "RA_OF_ASC_NODE": 208.8902, "ARG_OF_PERICENTER": 269.6132, "MEAN_ANOMALY": 154.1146, "EPHEMERIS_TYPE": 0, "CLASSIFICATION_TYPE": "U", "NORAD_CAT_ID": 66807, "ELEMENT_SET_NO": 999, "REV_AT_EPOCH": 415, "BSTAR": -0.021963, "MEAN_MOTION_DOT": -0.01981641, "MEAN_MOTION_DDOT": 0}, "tle": {"line1": "1 66807U 25278S   25353.83335647 -.01981641  00000+0 -21963-1 0  9991", "line2": "2 66807  42.9989 208.8902 0001634 269.6132 154.1146 15.65343803  4152"}}, "geometry": {"type": "Point", "coordinates": [-81.92711391600767, 41.39880110264284]}}]}